{
    "links": {
        "self": "http://www.neowsapp.com/rest/v1/neo/3696454?api_key=iIulBulltgU6a56xZRHN4H3l9WmuAYTsLGpBGhQ2"
    },
    "id": "3696454",
    "neo_reference_id": "3696454",
    "name": "(2014 WR7)",
    "designation": "2014 WR7",
    "nasa_jpl_url": "http://ssd.jpl.nasa.gov/sbdb.cgi?sstr=3696454",
    "absolute_magnitude_h": 26.2,
    "estimated_diameter": {
        "kilometers": {
            "estimated_diameter_min": 0.0152951935,
            "estimated_diameter_max": 0.0342010925
        },
        "meters": {
            "estimated_diameter_min": 15.2951935344,
            "estimated_diameter_max": 34.201092472
        },
        "miles": {
            "estimated_diameter_min": 0.0095039897,
            "estimated_diameter_max": 0.021251567
        },
        "feet": {
            "estimated_diameter_min": 50.1810827555,
            "estimated_diameter_max": 112.2083122258
        }
    },
    "is_potentially_hazardous_asteroid": false,
    "close_approach_data": [
        {
            "close_approach_date": "2013-02-10",
            "close_approach_date_full": "2013-Feb-10 05:37",
            "epoch_date_close_approach": 1360474620000,
            "relative_velocity": {
                "kilometers_per_second": "14.0499640346",
                "kilometers_per_hour": "50579.8705246147",
                "miles_per_hour": "31428.3645490307"
            },
            "miss_distance": {
                "astronomical": "0.2949582243",
                "lunar": "114.7387492527",
                "kilometers": "44125122.094262241",
                "miles": "27418079.4761352858"
            },
            "orbiting_body": "Earth"
        },
        {
            "close_approach_date": "2014-11-21",
            "close_approach_date_full": "2014-Nov-21 12:03",
            "epoch_date_close_approach": 1416571380000,
            "relative_velocity": {
                "kilometers_per_second": "8.3437228732",
                "kilometers_per_hour": "30037.4023436922",
                "miles_per_hour": "18664.0736951681"
            },
            "miss_distance": {
                "astronomical": "0.0077201338",
                "lunar": "3.0031320482",
                "kilometers": "1154915.572595006",
                "miles": "717631.2598068428"
            },
            "orbiting_body": "Earth"
        },
        {
            "close_approach_date": "2014-11-21",
            "close_approach_date_full": "2014-Nov-21 21:49",
            "epoch_date_close_approach": 1416606540000,
            "relative_velocity": {
                "kilometers_per_second": "8.8919279644",
                "kilometers_per_hour": "32010.9406719039",
                "miles_per_hour": "19890.353663606"
            },
            "miss_distance": {
                "astronomical": "0.0088250748",
                "lunar": "3.4329540972",
                "kilometers": "1320212.392670676",
                "miles": "820341.9410442888"
            },
            "orbiting_body": "Moon"
        },
        {
            "close_approach_date": "2016-10-23",
            "close_approach_date_full": "2016-Oct-23 16:12",
            "epoch_date_close_approach": 1477239120000,
            "relative_velocity": {
                "kilometers_per_second": "16.3277421706",
                "kilometers_per_hour": "58779.8718140639",
                "miles_per_hour": "36523.5264613554"
            },
            "miss_distance": {
                "astronomical": "0.2984574275",
                "lunar": "116.0999392975",
                "kilometers": "44648595.439679425",
                "miles": "27743350.729949065"
            },
            "orbiting_body": "Earth"
        }
    ],
    "orbital_data": {
        "orbit_id": "5",
        "orbit_determination_date": "2017-04-06 08:37:23",
        "first_observation_date": "2014-11-19",
        "last_observation_date": "2014-11-20",
        "data_arc_in_days": 1,
        "observations_used": 59,
        "orbit_uncertainty": "7",
        "minimum_orbit_intersection": ".00509124",
        "jupiter_tisserand_invariant": "4.329",
        "epoch_osculation": "2459000.5",
        "eccentricity": ".3896467351891823",
        "semi_major_axis": "1.560659788178088",
        "inclination": "9.486363191663346",
        "ascending_node_longitude": "236.6787817170805",
        "orbital_period": "712.1324693191477",
        "perihelion_distance": ".952553796973455",
        "perihelion_argument": "211.851531652397",
        "aphelion_distance": "2.168765779382721",
        "perihelion_time": "2459144.552185813242",
        "mean_anomaly": "287.1781738271983",
        "mean_motion": ".5055239235815032",
        "equinox": "J2000",
        "orbit_class": {
            "orbit_class_type": "APO",
            "orbit_class_description": "Near-Earth asteroid orbits which cross the Earth’s orbit similar to that of 1862 Apollo",
            "orbit_class_range": "a (semi-major axis) > 1.0 AU; q (perihelion) < 1.017 AU"
        }
    },
    "is_sentry_object": false
}